      2.10          N: GNSS NAV DATA                        RINEX VERSION / TYPE
fic2rin                                 04/29/2024 00:59:02 PGM / RUN BY / DATE
                                                            END OF HEADER
12 24  4 28 12  0  0.0 -.500612426549D-03 -.341060513165D-11  .000000000000D+00
     .420000000000D+02  .647812500000D+02  .435696719946D-08  .307179837541D+01
     .348128378391D-05  .886044907384D-02  .974535942078D-05  .515366699791D+04
     .432000000000D+05  .132247805595D-06  .498239726576D+00 -.689178705215D-07
     .962995533155D+00  .188343750000D+03  .144098430127D+01 -.766389066038D-08
    -.364300888880D-09  .100000000000D+01  .231200000000D+04  .000000000000D+00
     .340000000000D+01  .000000000000D+00 -.125728547573D-07  .420000000000D+02
     .360000000000D+05  .400000000000D+01
8  24  4 28 12  0  0.0  .148441642523D-03  .218278728426D-10  .000000000000D+00
     .460000000000D+02  .112156250000D+03  .469912430882D-08  .361044571481D+00
     .594928860664D-05  .946118752472D-02  .450573861599D-05  .515362546730D+04
     .432000000000D+05  .115483999252D-06  .144318241176D+01  .130385160446D-06
     .953399865800D+00  .284156250000D+03  .357095476791D+00 -.833784730481D-08
    -.714315468392D-10  .100000000000D+01  .231200000000D+04  .000000000000D+00
     .240000000000D+01  .000000000000D+00  .465661287308D-08  .460000000000D+02
     .360000000000D+05  .400000000000D+01
6  24  4 28 12  0  0.0  .300122424960D-03 -.187583282241D-10  .000000000000D+00
     .173000000000D+03 -.357812500000D+02  .391052003171D-08 -.161825690175D+01
    -.185705721378D-05  .303678191267D-02  .203400850296D-05  .515361005783D+04
     .432000000000D+05 -.335276126862D-07  .253814601471D+01  .279396772385D-07
     .989820740133D+00  .358156250000D+03 -.694909814720D+00 -.808462247126D-08
    -.105718689322D-09  .100000000000D+01  .231200000000D+04  .000000000000D+00
     .240000000000D+01  .000000000000D+00  .419095158577D-08  .173000000000D+03
     .360000000000D+05  .400000000000D+01
4  24  4 28 12  0  0.0  .349054578692D-03  .864019966684D-11  .000000000000D+00
     .159000000000D+03 -.200937500000D+02  .450233039728D-08  .448555816036D-01
    -.949949026108D-06  .281802425161D-02  .811740756035D-05  .515375152397D+04
     .432000000000D+05  .204890966415D-07 -.163020556458D+01  .521540641785D-07
     .964320568280D+00  .224937500000D+03 -.294073995538D+01 -.787747098543D-08
     .590024576892D-09  .100000000000D+01  .231200000000D+04  .000000000000D+00
     .240000000000D+01  .000000000000D+00 -.465661287308D-08  .415000000000D+03
     .360000000000D+05  .400000000000D+01
10 24  4 28 12  0  0.0 -.147516839206D-04 -.545696821064D-11  .000000000000D+00
     .480000000000D+02 -.970000000000D+02  .365122351669D-08  .234880475408D+01
    -.503100454807D-05  .931052363012D-02  .846385955811D-05  .515369135857D+04
     .432000000000D+05 -.800937414169D-07 -.271159015858D+01 -.176951289177D-06
     .983877240448D+00  .227875000000D+03 -.236886306964D+01 -.751852746256D-08
     .180364655769D-09  .100000000000D+01  .231200000000D+04  .000000000000D+00
     .340000000000D+01  .000000000000D+00  .232830643654D-08  .480000000000D+02
     .360000000000D+05  .400000000000D+01
24 24  4 28 12  0  0.0 -.464306678623D-03 -.397903932026D-11  .000000000000D+00
     .440000000000D+02 -.759375000000D+01  .549201447873D-08 -.145845465915D+01
    -.236555933952D-06  .152274762513D-01  .596232712269D-05  .515370976830D+04
     .432000000000D+05  .325962901115D-06 -.713430114759D+00  .894069671631D-07
     .933943696104D+00  .246125000000D+03  .975433941459D+00 -.825748681461D-08
     .164292557730D-10  .100000000000D+01  .231200000000D+04  .000000000000D+00
     .240000000000D+01  .000000000000D+00  .232830643654D-08  .440000000000D+02
     .360000000000D+05  .400000000000D+01
29 24  4 28 12  0  0.0 -.600378029048D-03  .136424205266D-11  .000000000000D+00
     .400000000000D+02  .939062500000D+02  .421803284086D-08  .402367870088D+00
     .469200313091D-05  .284383690450D-02  .453740358353D-05  .515360756493D+04
     .432000000000D+05  .558793544769D-08  .155245152133D+01 -.298023223877D-07
     .971530816044D+00  .296718750000D+03  .251043471679D+01 -.805604985253D-08
    -.517878714584D-10  .100000000000D+01  .231200000000D+04  .000000000000D+00
     .240000000000D+01  .000000000000D+00 -.977888703346D-08  .400000000000D+02
     .360000000000D+05  .400000000000D+01
17 24  4 28 12  0  0.0  .709827989340D-03 -.181898940355D-11  .000000000000D+00
     .250000000000D+02  .111062500000D+03  .435911014586D-08  .385247844513D+00
     .573880970478D-05  .134121569572D-01  .483915209770D-05  .515371930504D+04
     .432000000000D+05 -.119209289551D-06  .153750779706D+01 -.137835741043D-06
     .969123044528D+00  .294562500000D+03 -.132360501671D+01 -.834499045949D-08
    -.471448209139D-10  .100000000000D+01  .231200000000D+04  .000000000000D+00
     .240000000000D+01  .000000000000D+00 -.111758708954D-07  .250000000000D+02
     .360000000000D+05  .400000000000D+01
15 24  4 28 12  0  0.0  .153247732669D-03  .409272615798D-11  .000000000000D+00
     .750000000000D+02 -.225625000000D+02  .515378610445D-08 -.583464768107D+00
    -.102072954178D-05  .155207379721D-01  .826641917229D-05  .515364119911D+04
     .432000000000D+05 -.113621354103D-06 -.181673809418D+01  .165775418282D-06
     .934769628930D+00  .211000000000D+03  .130468502258D+01 -.846535261592D-08
     .552880172536D-09  .100000000000D+01  .231200000000D+04  .000000000000D+00
     .240000000000D+01  .000000000000D+00 -.107102096081D-07  .750000000000D+02
     .360000000000D+05  .400000000000D+01
9  24  4 28 12  0  0.0  .176665838808D-03  .138697942020D-10  .000000000000D+00
     .690000000000D+02 -.246250000000D+02  .458197657200D-08  .813331780979D+00
    -.121258199215D-05  .266614020802D-02  .800006091595D-05  .515367605019D+04
     .432000000000D+05 -.353902578354D-07 -.168953261856D+01 -.111758708954D-07
     .957900790744D+00  .221500000000D+03  .199919331310D+01 -.794390232399D-08
     .616811406957D-09  .100000000000D+01  .231200000000D+04  .000000000000D+00
     .240000000000D+01  .000000000000D+00  .931322574615D-09  .690000000000D+02
     .360000000000D+05  .400000000000D+01
13 24  4 28 12  0  0.0  .646339729428D-03  .295585778076D-11  .000000000000D+00
     .740000000000D+02 -.196562500000D+02  .447804367135D-08  .914871925688D-01
    -.104680657387D-05  .794763397425D-02  .750645995140D-05  .515365234947D+04
     .432000000000D+05  .558793544769D-08 -.152398637295D+01  .875443220139D-07
     .970886412333D+00  .243656250000D+03  .923873009008D+00 -.794390232399D-08
     .436803908922D-09  .100000000000D+01  .231200000000D+04  .000000000000D+00
     .240000000000D+01  .000000000000D+00 -.116415321827D-07  .740000000000D+02
     .360000000000D+05  .400000000000D+01
11 24  4 28 12  0  0.0 -.648514367640D-03 -.100044417195D-10  .000000000000D+00
     .780000000000D+02 -.418125000000D+02  .443589905872D-08 -.352189727304D+00
    -.225566327572D-05  .124034425244D-02  .178441405296D-05  .515370067215D+04
     .432000000000D+05  .558793544769D-08  .257184784952D+01  .745058059692D-07
     .966339449357D+00  .349406250000D+03 -.255214962686D+01 -.833177562333D-08
    -.181078971237D-09  .100000000000D+01  .231200000000D+04  .000000000000D+00
     .240000000000D+01  .000000000000D+00 -.838190317154D-08  .846000000000D+03
     .360000000000D+05  .400000000000D+01
14 24  4 28 12  0  0.0  .387511216104D-03  .943600753089D-11  .000000000000D+00
     .227000000000D+03  .669062500000D+02  .471591072233D-08  .307384836983D+01
     .344775617123D-05  .434851343744D-02  .100638717413D-04  .515370105362D+04
     .432000000000D+05 -.726431608200D-07  .454265689166D+00 -.670552253723D-07
     .946343922246D+00  .178656250000D+03 -.292774039657D+01 -.784854120896D-08
    -.403588239642D-09  .100000000000D+01  .231200000000D+04  .000000000000D+00
     .240000000000D+01  .000000000000D+00 -.791624188423D-08  .995000000000D+03
     .360000000000D+05  .400000000000D+01
32 24  4 28 12  0  0.0 -.618415884674D-03 -.113686837722D-12  .000000000000D+00
     .103000000000D+03 -.147500000000D+02  .459269130403D-08  .109464008886D+01
    -.840052962303D-06  .775948120281D-02  .814162194729D-05  .515366290283D+04
     .432000000000D+05 -.135973095894D-06 -.167501771361D+01  .186264514923D-07
     .961331642316D+00  .220343750000D+03 -.213731241361D+01 -.802104839458D-08
     .466805158594D-09  .100000000000D+01  .231200000000D+04  .000000000000D+00
     .240000000000D+01  .000000000000D+00  .931322574615D-09  .103000000000D+03
     .360000000000D+05  .400000000000D+01
30 24  4 28 12  0  0.0 -.398559495807D-03  .568434188608D-11  .000000000000D+00
     .970000000000D+02 -.130625000000D+02  .544451250009D-08 -.262988520223D+01
    -.894069671631D-06  .707745132968D-02  .678934156895D-05  .515364532852D+04
     .432000000000D+05  .633299350739D-07 -.615855974610D+00 -.158324837685D-06
     .935482700552D+00  .237687500000D+03 -.248179967095D+01 -.821069915143D-08
    -.967897459671D-10  .100000000000D+01  .231200000000D+04  .000000000000D+00
     .240000000000D+01  .000000000000D+00  .372529029846D-08  .970000000000D+02
     .360000000000D+05  .400000000000D+01
21 24  4 28 12  0  0.0  .124748330563D-03 -.216004991671D-11  .000000000000D+00
     .600000000000D+02 -.305937500000D+02  .475412659988D-08  .242746801116D+00
    -.202096998692D-05  .251840872224D-01  .154227018356D-05  .515369569397D+04
     .432000000000D+05  .186264514923D-06  .243347651707D+01 -.333413481712D-06
     .961719246850D+00  .351156250000D+03 -.582521869128D+00 -.881929593050D-08
    -.204294223960D-09  .100000000000D+01  .231200000000D+04  .000000000000D+00
     .240000000000D+01  .000000000000D+00 -.102445483208D-07  .600000000000D+02
     .360000000000D+05  .400000000000D+01
